CCSDS_OMM_VERS = 2.0
CREATION_DATE  = 
ORIGINATOR     = 

OBJECT_NAME    = STARLINK-35388
OBJECT_ID      = 2025-262L
CENTER_NAME    = EARTH
REF_FRAME      = TEME
TIME_SYSTEM    = UTC
MEAN_ELEMENT_THEORY = SGP/SGP4

EPOCH          = 2025-11-30T22:00:03.000096
MEAN_MOTION    = 15.71325310
ECCENTRICITY   = .00016728
INCLINATION    = 42.9990
RA_OF_ASC_NODE = 140.6427
ARG_OF_PERICENTER = 279.8823
MEAN_ANOMALY   = 81.7167

EPHEMERIS_TYPE = 0
CLASSIFICATION_TYPE = U
NORAD_CAT_ID   = 66466
ELEMENT_SET_NO = 999
REV_AT_EPOCH   = 373
BSTAR          = -.17244623E-1
MEAN_MOTION_DOT = -.1993423E-1
MEAN_MOTION_DDOT = 0

CCSDS_OMM_VERS = 2.0
CREATION_DATE  = 
ORIGINATOR     = 

OBJECT_NAME    = STARLINK-35682
OBJECT_ID      = 2025-262M
CENTER_NAME    = EARTH
REF_FRAME      = TEME
TIME_SYSTEM    = UTC
MEAN_ELEMENT_THEORY = SGP/SGP4

EPOCH          = 2025-11-30T22:00:03.000096
MEAN_MOTION    = 15.71329950
ECCENTRICITY   = .00017345
INCLINATION    = 42.9991
RA_OF_ASC_NODE = 140.6527
ARG_OF_PERICENTER = 279.0372
MEAN_ANOMALY   = 78.7259

EPHEMERIS_TYPE = 0
CLASSIFICATION_TYPE = U
NORAD_CAT_ID   = 66467
ELEMENT_SET_NO = 999
REV_AT_EPOCH   = 373
BSTAR          = -.1730686E-1
MEAN_MOTION_DOT = -.2000163E-1
MEAN_MOTION_DDOT = 0

CCSDS_OMM_VERS = 2.0
CREATION_DATE  = 
ORIGINATOR     = 

OBJECT_NAME    = STARLINK-35331
OBJECT_ID      = 2025-262N
CENTER_NAME    = EARTH
REF_FRAME      = TEME
TIME_SYSTEM    = UTC
MEAN_ELEMENT_THEORY = SGP/SGP4

EPOCH          = 2025-11-30T22:00:03.000096
MEAN_MOTION    = 15.71322668
ECCENTRICITY   = .00017921
INCLINATION    = 42.9990
RA_OF_ASC_NODE = 140.6375
ARG_OF_PERICENTER = 279.1502
MEAN_ANOMALY   = 84.3685

EPHEMERIS_TYPE = 0
CLASSIFICATION_TYPE = U
NORAD_CAT_ID   = 66468
ELEMENT_SET_NO = 999
REV_AT_EPOCH   = 373
BSTAR          = -.17231522E-1
MEAN_MOTION_DOT = -.1991992E-1
MEAN_MOTION_DDOT = 0

CCSDS_OMM_VERS = 2.0
CREATION_DATE  = 
ORIGINATOR     = 

OBJECT_NAME    = STARLINK-35451
OBJECT_ID      = 2025-262P
CENTER_NAME    = EARTH
REF_FRAME      = TEME
TIME_SYSTEM    = UTC
MEAN_ELEMENT_THEORY = SGP/SGP4

EPOCH          = 2025-11-30T22:00:03.000096
MEAN_MOTION    = 15.71323531
ECCENTRICITY   = .00017024
INCLINATION    = 42.9992
RA_OF_ASC_NODE = 140.6238
ARG_OF_PERICENTER = 280.8153
MEAN_ANOMALY   = 88.4522

EPHEMERIS_TYPE = 0
CLASSIFICATION_TYPE = U
NORAD_CAT_ID   = 66469
ELEMENT_SET_NO = 999
REV_AT_EPOCH   = 373
BSTAR          = -.1722153E-1
MEAN_MOTION_DOT = -.1990961E-1
MEAN_MOTION_DDOT = 0

CCSDS_OMM_VERS = 2.0
CREATION_DATE  = 
ORIGINATOR     = 

OBJECT_NAME    = STARLINK-35655
OBJECT_ID      = 2025-262Q
CENTER_NAME    = EARTH
REF_FRAME      = TEME
TIME_SYSTEM    = UTC
MEAN_ELEMENT_THEORY = SGP/SGP4

EPOCH          = 2025-11-30T22:00:03.000096
MEAN_MOTION    = 15.71325026
ECCENTRICITY   = .00016837
INCLINATION    = 42.9991
RA_OF_ASC_NODE = 140.6333
ARG_OF_PERICENTER = 277.5247
MEAN_ANOMALY   = 87.9125

EPHEMERIS_TYPE = 0
CLASSIFICATION_TYPE = U
NORAD_CAT_ID   = 66470
ELEMENT_SET_NO = 999
REV_AT_EPOCH   = 373
BSTAR          = -.17282709E-1
MEAN_MOTION_DOT = -.1997291E-1
MEAN_MOTION_DDOT = 0

CCSDS_OMM_VERS = 2.0
CREATION_DATE  = 
ORIGINATOR     = 

OBJECT_NAME    = STARLINK-35569
OBJECT_ID      = 2025-262R
CENTER_NAME    = EARTH
REF_FRAME      = TEME
TIME_SYSTEM    = UTC
MEAN_ELEMENT_THEORY = SGP/SGP4

EPOCH          = 2025-11-30T22:00:03.000096
MEAN_MOTION    = 15.71326650
ECCENTRICITY   = .00016664
INCLINATION    = 42.9991
RA_OF_ASC_NODE = 140.6286
ARG_OF_PERICENTER = 275.8573
MEAN_ANOMALY   = 91.4923

EPHEMERIS_TYPE = 0
CLASSIFICATION_TYPE = U
NORAD_CAT_ID   = 66471
ELEMENT_SET_NO = 999
REV_AT_EPOCH   = 373
BSTAR          = -.17250994E-1
MEAN_MOTION_DOT = -.1994168E-1
MEAN_MOTION_DDOT = 0

CCSDS_OMM_VERS = 2.0
CREATION_DATE  = 
ORIGINATOR     = 

OBJECT_NAME    = STARLINK-35567
OBJECT_ID      = 2025-262S
CENTER_NAME    = EARTH
REF_FRAME      = TEME
TIME_SYSTEM    = UTC
MEAN_ELEMENT_THEORY = SGP/SGP4

EPOCH          = 2025-11-30T22:00:03.000096
MEAN_MOTION    = 15.71323599
ECCENTRICITY   = .00017119
INCLINATION    = 42.9992
RA_OF_ASC_NODE = 140.6186
ARG_OF_PERICENTER = 279.0471
MEAN_ANOMALY   = 92.1382

EPHEMERIS_TYPE = 0
CLASSIFICATION_TYPE = U
NORAD_CAT_ID   = 66472
ELEMENT_SET_NO = 999
REV_AT_EPOCH   = 373
BSTAR          = -.17219873E-1
MEAN_MOTION_DOT = -.1990806E-1
MEAN_MOTION_DDOT = 0

CCSDS_OMM_VERS = 2.0
CREATION_DATE  = 
ORIGINATOR     = 

OBJECT_NAME    = STARLINK-35568
OBJECT_ID      = 2025-262T
CENTER_NAME    = EARTH
REF_FRAME      = TEME
TIME_SYSTEM    = UTC
MEAN_ELEMENT_THEORY = SGP/SGP4

EPOCH          = 2025-11-30T22:00:03.000096
MEAN_MOTION    = 15.71321769
ECCENTRICITY   = .00016635
INCLINATION    = 42.9992
RA_OF_ASC_NODE = 140.6134
ARG_OF_PERICENTER = 281.5234
MEAN_ANOMALY   = 91.5773

EPHEMERIS_TYPE = 0
CLASSIFICATION_TYPE = U
NORAD_CAT_ID   = 66473
ELEMENT_SET_NO = 999
REV_AT_EPOCH   = 373
BSTAR          = -.17180033E-1
MEAN_MOTION_DOT = -.1986566E-1
MEAN_MOTION_DDOT = 0

CCSDS_OMM_VERS = 2.0
CREATION_DATE  = 
ORIGINATOR     = 

OBJECT_NAME    = STARLINK-35620
OBJECT_ID      = 2025-262U
CENTER_NAME    = EARTH
REF_FRAME      = TEME
TIME_SYSTEM    = UTC
MEAN_ELEMENT_THEORY = SGP/SGP4

EPOCH          = 2025-11-30T22:00:03.000096
MEAN_MOTION    = 15.71328361
ECCENTRICITY   = .00017398
INCLINATION    = 42.9991
RA_OF_ASC_NODE = 140.6086
ARG_OF_PERICENTER = 277.4829
MEAN_ANOMALY   = 97.5332

EPHEMERIS_TYPE = 0
CLASSIFICATION_TYPE = U
NORAD_CAT_ID   = 66474
ELEMENT_SET_NO = 999
REV_AT_EPOCH   = 373
BSTAR          = -.17265457E-1
MEAN_MOTION_DOT = -.1995832E-1
MEAN_MOTION_DDOT = 0

CCSDS_OMM_VERS = 2.0
CREATION_DATE  = 
ORIGINATOR     = 

OBJECT_NAME    = STARLINK-35538
OBJECT_ID      = 2025-262V
CENTER_NAME    = EARTH
REF_FRAME      = TEME
TIME_SYSTEM    = UTC
MEAN_ELEMENT_THEORY = SGP/SGP4

EPOCH          = 2025-11-30T22:00:03.000096
MEAN_MOTION    = 15.71322885
ECCENTRICITY   = .0001747
INCLINATION    = 42.9989
RA_OF_ASC_NODE = 140.6039
ARG_OF_PERICENTER = 279.6085
MEAN_ANOMALY   = 97.3324

EPHEMERIS_TYPE = 0
CLASSIFICATION_TYPE = U
NORAD_CAT_ID   = 66475
ELEMENT_SET_NO = 999
REV_AT_EPOCH   = 373
BSTAR          = -.17257169E-1
MEAN_MOTION_DOT = -.1994583E-1
MEAN_MOTION_DDOT = 0

CCSDS_OMM_VERS = 2.0
CREATION_DATE  = 
ORIGINATOR     = 

OBJECT_NAME    = STARLINK-35372
OBJECT_ID      = 2025-262W
CENTER_NAME    = EARTH
REF_FRAME      = TEME
TIME_SYSTEM    = UTC
MEAN_ELEMENT_THEORY = SGP/SGP4

EPOCH          = 2025-11-30T22:00:03.000096
MEAN_MOTION    = 15.71325650
ECCENTRICITY   = .00014671
INCLINATION    = 42.9987
RA_OF_ASC_NODE = 140.5991
ARG_OF_PERICENTER = 280.7267
MEAN_ANOMALY   = 98.1240

EPHEMERIS_TYPE = 0
CLASSIFICATION_TYPE = U
NORAD_CAT_ID   = 66476
ELEMENT_SET_NO = 999
REV_AT_EPOCH   = 363
BSTAR          = -.172351E-1
MEAN_MOTION_DOT = -.1992307E-1
MEAN_MOTION_DDOT = 0

CCSDS_OMM_VERS = 2.0
CREATION_DATE  = 
ORIGINATOR     = 

OBJECT_NAME    = STARLINK-35354
OBJECT_ID      = 2025-262X
CENTER_NAME    = EARTH
REF_FRAME      = TEME
TIME_SYSTEM    = UTC
MEAN_ELEMENT_THEORY = SGP/SGP4

EPOCH          = 2025-11-30T22:00:03.000096
MEAN_MOTION    = 15.71327049
ECCENTRICITY   = .00017069
INCLINATION    = 42.9992
RA_OF_ASC_NODE = 140.5889
ARG_OF_PERICENTER = 278.0683
MEAN_ANOMALY   = 104.6178

EPHEMERIS_TYPE = 0
CLASSIFICATION_TYPE = U
NORAD_CAT_ID   = 66477
ELEMENT_SET_NO = 999
REV_AT_EPOCH   = 373
BSTAR          = -.1725658E-1
MEAN_MOTION_DOT = -.1994801E-1
MEAN_MOTION_DDOT = 0

CCSDS_OMM_VERS = 2.0
CREATION_DATE  = 
ORIGINATOR     = 

OBJECT_NAME    = STARLINK-35283
OBJECT_ID      = 2025-262Y
CENTER_NAME    = EARTH
REF_FRAME      = TEME
TIME_SYSTEM    = UTC
MEAN_ELEMENT_THEORY = SGP/SGP4

EPOCH          = 2025-11-30T22:00:03.000096
MEAN_MOTION    = 15.71324223
ECCENTRICITY   = .00017338
INCLINATION    = 42.9992
RA_OF_ASC_NODE = 140.5832
ARG_OF_PERICENTER = 279.9342
MEAN_ANOMALY   = 104.6745

EPHEMERIS_TYPE = 0
CLASSIFICATION_TYPE = U
NORAD_CAT_ID   = 66478
ELEMENT_SET_NO = 999
REV_AT_EPOCH   = 373
BSTAR          = -.17272724E-1
MEAN_MOTION_DOT = -.1996256E-1
MEAN_MOTION_DDOT = 0

CCSDS_OMM_VERS = 2.0
CREATION_DATE  = 
ORIGINATOR     = 

OBJECT_NAME    = STARLINK-35581
OBJECT_ID      = 2025-262Z
CENTER_NAME    = EARTH
REF_FRAME      = TEME
TIME_SYSTEM    = UTC
MEAN_ELEMENT_THEORY = SGP/SGP4

EPOCH          = 2025-11-30T22:00:03.000096
MEAN_MOTION    = 15.71325173
ECCENTRICITY   = .00017542
INCLINATION    = 42.9991
RA_OF_ASC_NODE = 140.5935
ARG_OF_PERICENTER = 279.1843
MEAN_ANOMALY   = 101.5839

EPHEMERIS_TYPE = 0
CLASSIFICATION_TYPE = U
NORAD_CAT_ID   = 66479
ELEMENT_SET_NO = 999
REV_AT_EPOCH   = 373
BSTAR          = -.17226285E-1
MEAN_MOTION_DOT = -.1991613E-1
MEAN_MOTION_DDOT = 0

CCSDS_OMM_VERS = 2.0
CREATION_DATE  = 
ORIGINATOR     = 

OBJECT_NAME    = STARLINK-35670
OBJECT_ID      = 2025-262AA
CENTER_NAME    = EARTH
REF_FRAME      = TEME
TIME_SYSTEM    = UTC
MEAN_ELEMENT_THEORY = SGP/SGP4

EPOCH          = 2025-11-30T22:00:03.000096
MEAN_MOTION    = 15.71322164
ECCENTRICITY   = .00017341
INCLINATION    = 42.9989
RA_OF_ASC_NODE = 140.5781
ARG_OF_PERICENTER = 282.2119
MEAN_ANOMALY   = 104.3079

EPHEMERIS_TYPE = 0
CLASSIFICATION_TYPE = U
NORAD_CAT_ID   = 66480
ELEMENT_SET_NO = 999
REV_AT_EPOCH   = 373
BSTAR          = -.17183855E-1
MEAN_MOTION_DOT = -.1987045E-1
MEAN_MOTION_DDOT = 0

